LEMUR-2-VALHALLA        
1 58900U 24022B   26193.54517831  .00010549  00000+0  26232-3 0  9993
2 58900  97.4084  43.8528 0009495  32.9596 327.2241 15.40435155136179
LEMUR-2-CAEL            
1 58903U 24022E   26193.53312518  .00011322  00000+0  26918-3 0  9991
2 58903  97.4069  44.8221 0007390  18.8003 341.3516 15.41796440136242
LEMUR-2-JOHNNYTRUONG    
1 59146U 24043BA  26193.84832772  .00035739  00000+0  40312-3 0  9999
2 59146  97.5384 347.1811 0004186 100.2015 259.9715 15.62433414132047
LEMUR-2-TOMATOKECHUP    
1 60471U 24149D   26193.77009299  .00007744  00000+0  21932-3 0  9993
2 60471  97.3802 275.8895 0003218 127.0790 233.0748 15.36552510106099
LEMUR-2-STELLA          
1 60533U 24149BT  26193.75801112  .00007469  00000+0  43460-3 0  9998
2 60533  97.6742 276.3329 0001212 111.1523 248.9837 15.12343479104360
LEMUR-2-MARHISYAM       
1 60536U 24149BW  26193.74796777  .00006770  00000+0  40079-3 0  9997
2 60536  97.6886 276.7972 0002737  73.8145 286.3386 15.11751485104349
LEMUR-2-AHMED-ASRAR     
1 60576U 24149DN  26193.75694365  .00007696  00000+0  43625-3 0  9990
2 60576  97.7013 278.9991 0000936 206.0418 154.0766 15.13277524104435
LEMUR-2-LLOYD           
1 60577U 24149DP  26193.76260729  .00006988  00000+0  43716-3 0  9999
2 60577  97.6753 274.9120 0004788  77.3680 282.8084 15.09725629104257
LEMUR-2-SQUIRRELCOMM    
1 60578U 24149DQ  26193.74751271  .00003392  00000+0  22806-3 0  9998
2 60578  97.6717 274.5815 0004210 339.5368  20.5690 15.07434376104255
LEMUR-2-SIERRINI        
1 60579U 24149DR  26193.77642762  .00008252  00000+0  49104-3 0  9996
2 60579  97.6846 276.4893 0006417  96.6845 263.5115 15.11482474104324
LEMUR-2-WILSON          
1 62694U 25009CP  26193.79276528  .00000827  00000+0  80295-4 0  9994
2 62694  97.7022 271.8086 0002205 338.0585  22.0541 14.95272934 81187
LEMUR-2-STAR-FOX        
1 62696U 25009CR  26193.79646390  .00004021  00000+0  30473-3 0  9996
2 62696  97.6917 275.2217 0002504  52.5903 307.5549 15.02825375 81405
LEMUR-2-ARIANNA         
1 62699U 25009CU  26193.79493253  .00004195  00000+0  31771-3 0  9991
2 62699  97.6856 274.9744 0002828  57.8921 302.2579 15.02826231 81405
LEMUR-2-ALISIA          
1 62706U 25009DB  26193.76782645  .00005448  00000+0  40766-3 0  9999
2 62706  97.6971 275.7673 0003987 136.3762 223.7778 15.03154652104007
LEMUR-2-ROUNDTRIPPER    
1 62711U 25009DG  26193.17602365  .00005299  00000+0  38583-3 0  9998
2 62711  97.7248 275.8230 0004375  70.1877 289.9820 15.04200239 81386
LEMUR-2-MYNAMEISJEFF    
1 62712U 25009DH  26193.77319299  .00005901  00000+0  42913-3 0  9998
2 62712  97.7301 276.8164 0003873 102.3756 257.7903 15.04200329 81475
